COSMOS 2433 (720)       
1 32275U 07052A   24206.75960724 -.00000056  00000+0  00000+0 0  9997
2 32275  65.9216 339.1358 0002857 207.3453 152.6457  2.13104010130307
COSMOS 2432 (719)       
1 32276U 07052B   24206.83233172 -.00000056  00000+0  00000+0 0  9997
2 32276  65.9366 339.2479 0007876 326.9360  34.9747  2.13103094130338
COSMOS 2434 (721)       
1 32393U 07065A   24205.25883049  .00000085  00000+0  00000+0 0  9991
2 32393  64.3211 215.3517 0000328 285.1374 255.8879  2.13103105128984
COSMOS 2436 (723)       
1 32395U 07065C   24206.72643778  .00000083  00000+0  00000+0 0  9997
2 32395  64.3298 215.3670 0016081 351.8220  10.2620  2.13102773128971
COSMOS 2456 (730)       
1 36111U 09070A   24206.41818816  .00000006  00000+0  00000+0 0  9993
2 36111  64.6276  94.6793 0003415 328.8695 175.7140  2.13099078113668
COSMOS 2457 (733)       
1 36112U 09070B   24206.29355052  .00000007  00000+0  00000+0 0  9999
2 36112  64.6123  94.5414 0004161 146.0196  36.2871  2.13101263113666
COSMOS 2460 (732)       
1 36402U 10007C   24206.12269500 -.00000055  00000+0  00000+0 0  9991
2 36402  65.7776 337.8164 0001551 130.7550 272.8401  2.13106180111964
COSMOS 2476 (744)       
1 37867U 11064A   24206.51343095  .00000007  00000+0  00000+0 0  9992
2 37867  64.9003  96.3249 0021918 236.0305 253.7491  2.13101596 99005
COSMOS 2477 (745)       
1 37868U 11064B   24206.34563265  .00000008  00000+0  00000+0 0  9998
2 37868  64.9074  96.4035 0019125 237.0472 302.2819  2.13103119 98995
COSMOS 2475 (743)       
1 37869U 11064C   24206.87115770  .00000004  00000+0  00000+0 0  9997
2 37869  64.9148  96.4008 0023953 252.8657 287.8722  2.13101939 99015
COSMOS 2485 (747)       
1 39155U 13019A   24206.28621257  .00000009  00000+0  00000+0 0  9991
2 39155  65.0576  96.9248 0022282 231.9470 127.9219  2.13101852 87519
COSMOS 2492 (754)       
1 39620U 14012A   24206.24146429 -.00000055  00000+0  00000+0 0  9993
2 39620  65.6587 337.3842 0010836 321.3235  38.6050  2.13103048 80479
COSMOS 2500 (755)       
1 40001U 14032A   24206.42034672 -.00000056  00000+0  00000+0 0  9997
2 40001  65.5961 337.1804 0007439 191.0019 168.9887  2.13105800 78696
COSMOS 2501 (702K)      
1 40315U 14075A   24206.20466792  .00000082  00000+0  00000+0 0  9998
2 40315  63.6226 214.3887 0021059 211.6203 148.2837  2.13101386 75083
COSMOS 2514 (751)       
1 41330U 16008A   24206.18721556 -.00000055  00000+0  00000+0 0  9994
2 41330  65.3906 336.6883 0011093 202.4735 157.4849  2.13102471 65859
COSMOS 2522 (752)       
1 42939U 17055A   24206.49669657  .00000083  00000+0  00000+0 0  9990
2 42939  64.0838 215.4907 0010428 241.7376 118.1889  2.13101870 53211
COSMOS 2527 (756)       
1 43508U 18053A   24206.92523893  .00000004  00000+0  00000+0 0  9994
2 43508  65.2179  97.0631 0007314 229.6421 130.3635  2.13102262 47527
COSMOS 2529 (757)       
1 43687U 18086A   24206.55474777  .00000083  00000+0  00000+0 0  9990
2 43687  64.2992 216.0114 0011851 259.4406 100.4585  2.13101988 44524
COSMOS 2534 (758)       
1 44299U 19030A   24206.42720198  .00000083  00000+0  00000+0 0  9997
2 44299  64.3722 215.9726 0013624 278.3750 117.9199  2.13101993 40161
COSMOS 2544 (759)       
1 44850U 19088A   24205.93078051  .00000012  00000+0  00000+0 0  9994
2 44850  65.2041  96.9328 0012370 256.5906 103.3420  2.13102068 35941
COSMOS 2545 (760)       
1 45358U 20018A   24206.12761323 -.00000056  00000+0  00000+0 0  9995
2 45358  64.7303 336.6712 0008931 234.6946 125.2289  2.13102431 33892
COSMOS 2547 (705K)      
1 46805U 20075A   24206.31465175  .00000083  00000+0  00000+0 0  9992
2 46805  64.6012 215.6289 0009033 241.9884 117.9532  2.13102923 29145
COSMOS 2557 (706K)      
1 52984U 22075A   24206.47992258 -.00000058  00000+0  00000+0 0  9996
2 52984  64.6575 338.7855 0011099 276.2846  83.5952  2.13102153 15957
COSMOS 2559 (707K)      
1 54031U 22130A   24206.42293203 -.00000058  00000+0  00000+0 0  9992
2 54031  64.6296 338.9038 0006619 213.6844 146.2797  2.13101410 13926
COSMOS 2564 (761)       
1 54377U 22161A   24206.14449884  .00000083  00000+0  00000+0 0  9993
2 54377  64.7425 215.7460 0011619 225.7026 134.2362  2.13102068 12864
COSMOS 2569 (703K)      
1 57517U 23114A   24206.16161243  .00000009  00000+0  00000+0 0  9991
2 57517  64.9314  96.0609 0010202 297.8426  62.1254  2.13103700  7494
